ONEWEB-0018             
1 45434U 20020L   26144.94739337  .00000082  00000+0  19575-3 0  9995
2 45434  87.8913  25.6898 0001819  68.9236 291.2086 13.11418483299584
ONEWEB-0083             
1 45435U 20020M   26144.93734957 -.00000327  00000+0 -95918-3 0  9997
2 45435  87.8919  25.6842 0001736  79.8134 280.3190 13.11417232299627
ONEWEB-0095             
1 45436U 20020N   26144.92887455 -.00000574  00000+0 -16564-2 0  9992
2 45436  87.8918  25.6943 0002021 104.7812 255.3540 13.11418204299629
ONEWEB-0092             
1 45437U 20020P   26144.96664523  .00000510  00000+0  13924-2 0  9991
2 45437  87.8917  25.6820 0001971  89.2490 270.8864 13.11953735299742
ONEWEB-0085             
1 45438U 20020Q   26144.93707989 -.00000370  00000+0 -10787-2 0  9993
2 45438  87.8909  25.6927 0001791  81.7283 278.4048 13.11417344299625
ONEWEB-0096             
1 45439U 20020R   26144.71003086 -.00000280  00000+0 -82704-3 0  9996
2 45439  87.8921  25.7318 0001870  81.4445 278.6895 13.11419117299587
ONEWEB-0037             
1 45440U 20020S   26144.90469844  .00000187  00000+0  48856-3 0  9991
2 45440  87.8927  25.6684 0001822  84.3192 275.8144 13.11909253299646
ONEWEB-0042             
1 45441U 20020T   26144.92859666 -.00000595  00000+0 -17133-2 0  9997
2 45441  87.8917  25.6847 0001891  80.5837 279.5504 13.11416879299612
ONEWEB-0098             
1 45442U 20020U   26144.92448946 -.00000494  00000+0 -14302-2 0  9996
2 45442  87.8913  25.6954 0001718  80.6546 279.4776 13.11415515299597
ONEWEB-0055             
1 45443U 20020V   26144.90315961  .00000210  00000+0  55632-3 0  9991
2 45443  87.8915  25.6982 0001697  80.7618 279.3702 13.11412482299563
ONEWEB-0093             
1 45444U 20020W   26144.65422432  .00000522  00000+0  14359-2 0  9992
2 45444  87.8919  25.7403 0002173  78.0822 282.0550 13.11417718299596
ONEWEB-0029             
1 45445U 20020X   26144.90894481 -.00000071  00000+0 -23836-3 0  9990
2 45445  87.8904  25.7008 0001948  79.4221 280.7126 13.10885272299608
ONEWEB-0068             
1 45446U 20020Y   26144.95913078  .00000454  00000+0  12446-2 0  9997
2 45446  87.8919  25.6832 0001925  76.8927 283.2416 13.11416695299552
ONEWEB-0046             
1 45447U 20020Z   26144.95078662  .00000364  00000+0  99055-3 0  9991
2 45447  87.8917  25.6923 0002070  82.9571 277.1793 13.11418610299567
ONEWEB-0063             
1 45448U 20020AA  26144.90344331  .00000216  00000+0  57414-3 0  9995
2 45448  87.8917  25.6992 0001942  90.5765 269.5585 13.11414148299646
ONEWEB-0019             
1 45449U 20020AB  26144.94216303 -.00000114  00000+0 -35651-3 0  9995
2 45449  87.8914  25.6794 0001650  80.6225 279.5089 13.11417632299495
