[{"OBJECT_NAME":"ONEWEB-0018","OBJECT_ID":"2020-020L","EPOCH":"2026-05-24T22:44:14.787168","MEAN_MOTION":13.11418483,"ECCENTRICITY":0.0001819,"INCLINATION":87.8913,"RA_OF_ASC_NODE":25.6898,"ARG_OF_PERICENTER":68.9236,"MEAN_ANOMALY":291.2086,"EPHEMERIS_TYPE":0,"CLASSIFICATION_TYPE":"U","NORAD_CAT_ID":45434,"ELEMENT_SET_NO":999,"REV_AT_EPOCH":29958,"BSTAR":0.00019575000000000001,"MEAN_MOTION_DOT":8.2e-07,"MEAN_MOTION_DDOT":0.0},{"OBJECT_NAME":"ONEWEB-0083","OBJECT_ID":"2020-020M","EPOCH":"2026-05-24T22:29:47.002848","MEAN_MOTION":13.11417232,"ECCENTRICITY":0.0001736,"INCLINATION":87.8919,"RA_OF_ASC_NODE":25.6842,"ARG_OF_PERICENTER":79.8134,"MEAN_ANOMALY":280.319,"EPHEMERIS_TYPE":0,"CLASSIFICATION_TYPE":"U","NORAD_CAT_ID":45435,"ELEMENT_SET_NO":999,"REV_AT_EPOCH":29962,"BSTAR":-0.00095918,"MEAN_MOTION_DOT":-3.27e-06,"MEAN_MOTION_DDOT":0.0},{"OBJECT_NAME":"ONEWEB-0095","OBJECT_ID":"2020-020N","EPOCH":"2026-05-24T22:17:34.761120","MEAN_MOTION":13.11418204,"ECCENTRICITY":0.0002021,"INCLINATION":87.8918,"RA_OF_ASC_NODE":25.6943,"ARG_OF_PERICENTER":104.7812,"MEAN_ANOMALY":255.354,"EPHEMERIS_TYPE":0,"CLASSIFICATION_TYPE":"U","NORAD_CAT_ID":45436,"ELEMENT_SET_NO":999,"REV_AT_EPOCH":29962,"BSTAR":-0.0016564000000000001,"MEAN_MOTION_DOT":-5.74e-06,"MEAN_MOTION_DDOT":0.0},{"OBJECT_NAME":"ONEWEB-0092","OBJECT_ID":"2020-020P","EPOCH":"2026-05-24T23:11:58.147872","MEAN_MOTION":13.11953735,"ECCENTRICITY":0.0001971,"INCLINATION":87.8917,"RA_OF_ASC_NODE":25.682,"ARG_OF_PERICENTER":89.249,"MEAN_ANOMALY":270.8864,"EPHEMERIS_TYPE":0,"CLASSIFICATION_TYPE":"U","NORAD_CAT_ID":45437,"ELEMENT_SET_NO":999,"REV_AT_EPOCH":29974,"BSTAR":0.0013924,"MEAN_MOTION_DOT":5.1e-06,"MEAN_MOTION_DDOT":0.0},{"OBJECT_NAME":"ONEWEB-0085","OBJECT_ID":"2020-020Q","EPOCH":"2026-05-24T22:29:23.702496","MEAN_MOTION":13.11417344,"ECCENTRICITY":0.0001791,"INCLINATION":87.8909,"RA_OF_ASC_NODE":25.6927,"ARG_OF_PERICENTER":81.7283,"MEAN_ANOMALY":278.4048,"EPHEMERIS_TYPE":0,"CLASSIFICATION_TYPE":"U","NORAD_CAT_ID":45438,"ELEMENT_SET_NO":999,"REV_AT_EPOCH":29962,"BSTAR":-0.0010787,"MEAN_MOTION_DOT":-3.7e-06,"MEAN_MOTION_DDOT":0.0},{"OBJECT_NAME":"ONEWEB-0096","OBJECT_ID":"2020-020R","EPOCH":"2026-05-24T17:02:26.666304","MEAN_MOTION":13.11419117,"ECCENTRICITY":0.000187,"INCLINATION":87.8921,"RA_OF_ASC_NODE":25.7318,"ARG_OF_PERICENTER":81.4445,"MEAN_ANOMALY":278.6895,"EPHEMERIS_TYPE":0,"CLASSIFICATION_TYPE":"U","NORAD_CAT_ID":45439,"ELEMENT_SET_NO":999,"REV_AT_EPOCH":29958,"BSTAR":-0.00082704,"MEAN_MOTION_DOT":-2.8e-06,"MEAN_MOTION_DDOT":0.0},{"OBJECT_NAME":"ONEWEB-0037","OBJECT_ID":"2020-020S","EPOCH":"2026-05-24T21:42:45.945216","MEAN_MOTION":13.11909253,"ECCENTRICITY":0.0001822,"INCLINATION":87.8927,"RA_OF_ASC_NODE":25.6684,"ARG_OF_PERICENTER":84.3192,"MEAN_ANOMALY":275.8144,"EPHEMERIS_TYPE":0,"CLASSIFICATION_TYPE":"U","NORAD_CAT_ID":45440,"ELEMENT_SET_NO":999,"REV_AT_EPOCH":29964,"BSTAR":0.00048856,"MEAN_MOTION_DOT":1.87e-06,"MEAN_MOTION_DDOT":0.0},{"OBJECT_NAME":"ONEWEB-0042","OBJECT_ID":"2020-020T","EPOCH":"2026-05-24T22:17:10.751424","MEAN_MOTION":13.11416879,"ECCENTRICITY":0.0001891,"INCLINATION":87.8917,"RA_OF_ASC_NODE":25.6847,"ARG_OF_PERICENTER":80.5837,"MEAN_ANOMALY":279.5504,"EPHEMERIS_TYPE":0,"CLASSIFICATION_TYPE":"U","NORAD_CAT_ID":45441,"ELEMENT_SET_NO":999,"REV_AT_EPOCH":29961,"BSTAR":-0.0017133,"MEAN_MOTION_DOT":-5.95e-06,"MEAN_MOTION_DDOT":0.0},{"OBJECT_NAME":"ONEWEB-0098","OBJECT_ID":"2020-020U","EPOCH":"2026-05-24T22:11:15.889344","MEAN_MOTION":13.11415515,"ECCENTRICITY":0.0001718,"INCLINATION":87.8913,"RA_OF_ASC_NODE":25.6954,"ARG_OF_PERICENTER":80.6546,"MEAN_ANOMALY":279.4776,"EPHEMERIS_TYPE":0,"CLASSIFICATION_TYPE":"U","NORAD_CAT_ID":45442,"ELEMENT_SET_NO":999,"REV_AT_EPOCH":29959,"BSTAR":-0.0014302000000000002,"MEAN_MOTION_DOT":-4.94e-06,"MEAN_MOTION_DDOT":0.0},{"OBJECT_NAME":"ONEWEB-0055","OBJECT_ID":"2020-020V","EPOCH":"2026-05-24T21:40:32.990304","MEAN_MOTION":13.11412482,"ECCENTRICITY":0.0001697,"INCLINATION":87.8915,"RA_OF_ASC_NODE":25.6982,"ARG_OF_PERICENTER":80.7618,"MEAN_ANOMALY":279.3702,"EPHEMERIS_TYPE":0,"CLASSIFICATION_TYPE":"U","NORAD_CAT_ID":45443,"ELEMENT_SET_NO":999,"REV_AT_EPOCH":29956,"BSTAR":0.00055632,"MEAN_MOTION_DOT":2.1e-06,"MEAN_MOTION_DDOT":0.0},{"OBJECT_NAME":"ONEWEB-0093","OBJECT_ID":"2020-020W","EPOCH":"2026-05-24T15:42:04.981248","MEAN_MOTION":13.11417718,"ECCENTRICITY":0.0002173,"INCLINATION":87.8919,"RA_OF_ASC_NODE":25.7403,"ARG_OF_PERICENTER":78.0822,"MEAN_ANOMALY":282.055,"EPHEMERIS_TYPE":0,"CLASSIFICATION_TYPE":"U","NORAD_CAT_ID":45444,"ELEMENT_SET_NO":999,"REV_AT_EPOCH":29959,"BSTAR":0.0014359,"MEAN_MOTION_DOT":5.22e-06,"MEAN_MOTION_DDOT":0.0},{"OBJECT_NAME":"ONEWEB-0029","OBJECT_ID":"2020-020X","EPOCH":"2026-05-24T21:48:52.831584","MEAN_MOTION":13.10885272,"ECCENTRICITY":0.0001948,"INCLINATION":87.8904,"RA_OF_ASC_NODE":25.7008,"ARG_OF_PERICENTER":79.4221,"MEAN_ANOMALY":280.7126,"EPHEMERIS_TYPE":0,"CLASSIFICATION_TYPE":"U","NORAD_CAT_ID":45445,"ELEMENT_SET_NO":999,"REV_AT_EPOCH":29960,"BSTAR":-0.00023836,"MEAN_MOTION_DOT":-7.1e-07,"MEAN_MOTION_DDOT":0.0},{"OBJECT_NAME":"ONEWEB-0068","OBJECT_ID":"2020-020Y","EPOCH":"2026-05-24T23:01:08.899392","MEAN_MOTION":13.11416695,"ECCENTRICITY":0.0001925,"INCLINATION":87.8919,"RA_OF_ASC_NODE":25.6832,"ARG_OF_PERICENTER":76.8927,"MEAN_ANOMALY":283.2416,"EPHEMERIS_TYPE":0,"CLASSIFICATION_TYPE":"U","NORAD_CAT_ID":45446,"ELEMENT_SET_NO":999,"REV_AT_EPOCH":29955,"BSTAR":0.0012446,"MEAN_MOTION_DOT":4.54e-06,"MEAN_MOTION_DDOT":0.0},{"OBJECT_NAME":"ONEWEB-0046","OBJECT_ID":"2020-020Z","EPOCH":"2026-05-24T22:49:07.963968","MEAN_MOTION":13.1141861,"ECCENTRICITY":0.000207,"INCLINATION":87.8917,"RA_OF_ASC_NODE":25.6923,"ARG_OF_PERICENTER":82.9571,"MEAN_ANOMALY":277.1793,"EPHEMERIS_TYPE":0,"CLASSIFICATION_TYPE":"U","NORAD_CAT_ID":45447,"ELEMENT_SET_NO":999,"REV_AT_EPOCH":29956,"BSTAR":0.00099055,"MEAN_MOTION_DOT":3.64e-06,"MEAN_MOTION_DDOT":0.0},{"OBJECT_NAME":"ONEWEB-0063","OBJECT_ID":"2020-020AA","EPOCH":"2026-05-24T21:40:57.501984","MEAN_MOTION":13.11414148,"ECCENTRICITY":0.0001942,"INCLINATION":87.8917,"RA_OF_ASC_NODE":25.6992,"ARG_OF_PERICENTER":90.5765,"MEAN_ANOMALY":269.5585,"EPHEMERIS_TYPE":0,"CLASSIFICATION_TYPE":"U","NORAD_CAT_ID":45448,"ELEMENT_SET_NO":999,"REV_AT_EPOCH":29964,"BSTAR":0.00057414,"MEAN_MOTION_DOT":2.16e-06,"MEAN_MOTION_DDOT":0.0},{"OBJECT_NAME":"ONEWEB-0019","OBJECT_ID":"2020-020AB","EPOCH":"2026-05-24T22:36:42.885792","MEAN_MOTION":13.11417632,"ECCENTRICITY":0.000165,"INCLINATION":87.8914,"RA_OF_ASC_NODE":25.6794,"ARG_OF_PERICENTER":80.6225,"MEAN_ANOMALY":279.5089,"EPHEMERIS_TYPE":0,"CLASSIFICATION_TYPE":"U","NORAD_CAT_ID":45449,"ELEMENT_SET_NO":999,"REV_AT_EPOCH":29949,"BSTAR":-0.00035651,"MEAN_MOTION_DOT":-1.14e-06,"MEAN_MOTION_DDOT":0.0}]